DIWATA-2B (PO-101)
1 43678U 18084H   26115.94876830  .00002501  00000-0  20503-3 0  9990
2 43678  98.1068 309.9347 0013295 348.7149  11.3773 15.00189035408380
ESHAIL-2
1 43700U 18090A   26115.97095516  .00000131  00000-0  00000-0 0  9994
2 43700   0.0339  89.1787 0001289 329.7351 170.3966  1.00274273 27154
K2SAT
1 43761U 18099D   26115.68248884  .00001827  00000-0  12819-3 0  9993
2 43761  97.4227 158.4303 0012070 157.6202 202.5554 15.06320678404202
AISTECHSAT-2
1 43768U 18099L   26115.65222922  .00005043  00000-0  27425-3 0  9995
2 43768  97.4348 164.8446 0006412 115.6447 244.5448 15.14896797404320
SNUSAT-2
1 43782U 18099AA  26115.71721821  .00008135  00000-0  36912-3 0  9996
2 43782  97.4108 169.9276 0012106 117.4727 242.7741 15.21002221405051
ITASAT-1
1 43786U 18099AE  26115.64089421  .00006733  00000-0  33025-3 0  9999
2 43786  97.4081 168.2160 0013266 169.0938 191.0587 15.18357907404934
EAGLET-1
1 43790U 18099AJ  26115.66384160  .00003846  00000-0  22409-3 0  9990
2 43790  97.4285 166.7270 0011907 159.6356 200.5352 15.12524788404392
ESEO
1 43792U 18099AL  26115.69276935  .00000998  00000-0  76191-4 0  9998
2 43792  97.4026 155.3223 0013214 144.7570 215.4533 15.04082506403916
MINXSS-2
1 43758U 18099A   26115.76444001  .00031498  00000-0  70279-3 0  9998
2 43758  97.4559 190.6503 0009105 100.8552 259.3721 15.43461639406032
FOX-1CLIFF (AO-95)
1 43770U 18099N   26115.68900562  .00011478  00000-0  45457-3 0  9998
2 43770  97.4424 176.1653 0009635 163.7420 196.4129 15.25544715405211
CORVUS-BC4
1 43767U 18099K   26115.65118015  .00004253  00000-0  25078-3 0  9995
2 43767  97.4124 160.1730 0008653 170.9764 189.1624 15.12056768404460
CZ-4B R/B
1 43656U 18081B   26115.70713184  .00000163  00000-0  64991-4 0  9991
2 43656  99.3696  29.4471 0205627  58.0747 304.0253 14.31842023391792
COSMOS 2504 [i]
1 40555U 15020D   26115.93373311  .00000219  00000-0  72162-4 0  9996
2 40555  82.5132 271.6816 0609070  56.4185 309.3590 13.61368223543088
MERIDIAN-4
1 37398U 11018A   26086.29615466  .00018792  00000-0  21546-2 0  9999
2 37398  62.0768  86.8592 7509617 264.8296  14.5762  2.02052290109121
MERIDIAN-6
1 38995U 12063A   26114.77913049  .00000402  00000-0  00000-0 0  9996
2 38995  64.1512   2.9893 7337296 228.7379  40.1161  2.00612945 98437
MERIDIAN-7
1 40296U 14069A   26114.84258878  .00000147  00000-0  00000-0 0  9997
2 40296  63.4466 220.6063 6667622 270.9068  19.3633  2.00585549 84160
METOP-C
1 43689U 18087A   26115.91074931  .00000093  00000-0  62337-4 0  9990
2 43689  98.6680 176.4605 0000861  40.6957 319.4284 14.21511580387405
FENGYUN-3B
1 37214U 10059A   26115.97316822  .00000201  00000-0  12734-3 0  9998
2 37214  98.9673 161.7544 0021672 337.4766  90.8496 14.14829704800041
FENGYUN-3C
1 39260U 13052A   26115.95713075  .00000097  00000-0  70236-4 0  9991
2 39260  98.4951  92.2411 0014782 169.1784 190.9711 14.15742414651176
EWS-G1 (GOES-13)
1 29155U 06018A   26115.77497226 -.00000230  00000-0  00000-0 0  9992
2 29155   4.3994  77.0388 0061623 275.8061 108.8559  0.98788543 42737
FENGYUN-2H
1 43491U 18050A   26115.93929295 -.00000140  00000-0  00000-0 0  9994
2 43491   2.8988  79.6569 0001752 159.1021  32.5834  1.00274278 28910
FENGYUN-2G
1 40367U 14090A   26115.87203934 -.00000313  00000-0  00000-0 0  9993
2 40367   5.5091  73.4313 0002969 146.1556  48.0199  1.00272778 41478
INMARSAT 4-F1
1 28628U 05009A   26112.64979137  .00000024  00000-0  00000-0 0  9994
2 28628   5.0953  42.6844 0002718 340.2932 239.7280  1.00272777 77119
INMARSAT 4-F2
1 28899U 05044A   26115.78030876 -.00000271  00000-0  00000-0 0  9994
2 28899   5.0292  43.7580 0002704 347.7503 246.6499  1.00272238 74999
INMARSAT 4-F3
1 33278U 08039A   26115.90419281 -.00000152  00000-0  00000-0 0  9991
2 33278   4.2500  31.4159 0003083  12.7579  37.2516  1.00271266 46025
INMARSAT 4A-F4 (ALPHASAT)
1 39215U 13038A   26115.96496686  .00000121  00000-0  00000-0 0  9998
2 39215   2.9923   1.8173 0002187  60.9150 163.5010  1.00271973 43492
ASTROCAST
1 43798U 18099AS  26115.76482030  .00032407  00000-0  66119-3 0  9995
2 43798  97.4397 192.7647 0005573  65.4545 294.7284 15.46125298406321
JY1SAT (JO-97)
1 43803U 18099AX  26115.86963532  .00019141  00000-0  62146-3 0  9990
2 43803  97.4169 178.5804 0007483 100.2078 260.0007 15.31960258405610
SUOMI-100
1 43804U 18099AY  26115.67843520  .00011466  00000-0  43182-3 0  9995
2 43804  97.4231 176.3053 0011886 106.2370 254.0177 15.27195156405406
GEO-KOMPSAT-2A
1 43823U 18100A   26115.94899966 -.00000357  00000-0  00000-0 0  9991
2 43823   0.0569  67.0046 0001951 358.3470 258.5132  1.00271371 27109
UWE-4
1 43880U 18111E   26115.73586044  .00029701  00000-0  67491-3 0  9996
2 43880  97.5857  41.8460 0009792 139.4628 220.7350 15.42922425402684
D-STAR ONE SPARROW
1 43881U 18111F   26115.79602952  .00088290  00000-0  98244-3 0  9998
2 43881  97.6120  52.2080 0006573 129.3393 230.8448 15.62554599403163
METEOR M2-2
1 44387U 19038A   26115.98124899 -.00000023  00000-0  99019-5 0  9991
2 44387  98.9135 102.5033 0001733 128.8442 231.2892 14.24350550353861
MOMENTUS-X1
1 44408U 19038Y   26115.66242264  .00036940  00000-0  41663-3 0  9993
2 44408  97.6822 156.4079 0008632 193.5725 166.5302 15.62395415378348
MERIDIAN-8
1 44453U 19046A   26114.88001455 -.00000006  00000-0  00000-0 0  9992
2 44453  63.0809  57.6132 7060038 274.7154  14.9214  2.00612262 49270
TAURUS-1
1 44530U 19059C   26115.89491811  .00008148  00000-0  13198-2 0  9991
2 44530  98.6376 277.5154 0009886 116.5776 243.6443 14.71501615350951
GAOFEN 12-01
1 44819U 19082A   26115.96864564  .00000372  00000-0  55313-4 0  9992
2 44819  97.8126 123.7255 0001421 128.2147 231.9193 14.80414391346364
CAS-6 (TO-108)
1 44881U 19093C   26115.94315218  .00000359  00000-0  46701-4 0  9994
2 44881  97.7542 189.4470 0012117 258.1978 101.7879 14.86429129343656
ELEKTRO-L3
1 44903U 19095A   26115.98948663 -.00000109  00000-0  00000-0 0  9993
2 44903   0.1237  75.6117 0001058 295.5808 274.9605  1.00271203 23186
DOSAAF-85 (RS-44)
1 44909U 19096E   26115.78006692  .00000004  00000-0 -22322-4 0  9994
2 44909  82.5261  14.5305 0216373 266.9379  90.6945 12.79747976295642
MERIDIAN-9
1 45254U 20015A   26114.62886534 -.00000068  00000-0  00000-0 0  9999
2 45254  65.5052 324.6836 6875771 278.8286  14.8331  2.00601831 45212
DEKART
1 46493U 20068H   26115.98439260  .00014255  00000-0  40672-3 0  9997
2 46493  97.8768 121.5655 0011208 107.9365 252.3100 15.36107313307756
NORBY
1 46494U 20068J   26115.96825052  .00026442  00000-0  53842-3 0  9998
2 46494  97.8667 127.4202 0009059  90.7013 269.5273 15.46202332308130
SALSAT (TUBSAT 22)
1 46495U 20068K   26115.93492936  .00009598  00000-0  34294-3 0  9990
2 46495  97.8865 115.8517 0011523 121.2153 239.0216 15.29005761307377
NETSAT-4
1 46504U 20068U   26115.72424217  .00016872  00000-0  39615-3 0  9990
2 46504  97.8635 119.8222 0007155 134.9268 225.2559 15.42089611307686
NETSAT-3
1 46505U 20068V   26115.94879877  .00020493  00000-0  50054-3 0  9995
2 46505  97.8676 118.3501 0006578 147.0629 213.1027 15.40855955307631
NETSAT-1
1 46506U 20068W   26115.95025086  .00014552  00000-0  45370-3 0  9996
2 46506  97.8756 113.2792 0005248 167.4209 192.7164 15.33347715307298
NETSAT-2
1 46507U 20068X   26115.95794389  .00024690  00000-0  54698-3 0  9993
2 46507  97.8645 119.7983 0004943 150.4718 209.6808 15.43760263307670
ARKTIKA-M1
1 47719U 21016A   26113.16409645 -.00000101  00000-0  00000-0 0  9999
2 47719  63.2246  65.5569 7266495 269.6808  14.9538  2.00609676 37687
UNISAT-7
1 47945U 21022P   26115.71405228  .00013611  00000-0  35354-3 0  9995
2 47945  97.3930  20.1370 0007181 260.6242  99.4192 15.39054493281787
CSS (TIANHE-1)
1 48274U 21035A   26115.90640323  .00030509  00000-0  32916-3 0  9999
2 48274  41.4670 280.3691 0006844 274.1107  85.8950 15.62962461284991
FENGYUN-4B
1 48808U 21047A   26115.94431964  .00000000  00000-0  00000-0 0  9997
2 48808   0.0167   7.8684 0005470   4.5702 286.1508  1.00266914 18054
CUTE-LASP
1 49263U 21088D   26115.70163122  .00083558  00000-0  57513-3 0  9993
2 49263  97.4190 210.7944 0001648 167.1838 192.9468 15.74387490254251
JILIN-01 GAOFEN 2F
1 49338U 21097A   26115.93181448  .00004327  00000-0  28893-3 0  9998
2 49338  97.6621 242.3013 0019855  49.1992 311.0954 15.07386599248445
TEIKYOSAT-4 (OORURI)
1 49396U 21102B   26115.61661264  .00001732  00000-0  11221-3 0  9997
2 49396  97.3720 147.1388 0013688 111.7301 248.5387 15.09314492244794
Z-SAT
1 49399U 21102E   26115.99278402  .00003525  00000-0  17666-3 0  9990
2 49399  97.3380 152.9027 0018457  71.5963 288.7277 15.17849347245526
KOSEN-1
1 49402U 21102H   26115.63342663  .00007183  00000-0  28053-3 0  9993
2 49402  97.3243 158.8267 0014729  40.1539 320.0785 15.26089089246006
CAMSAT XW-3 (CAS-9)
1 50466U 21131B   26115.91984010  .00000311  00000-0  10983-3 0  9995
2 50466  98.4944 208.6010 0002925 248.3696 111.7182 14.41304475227582
INSPIRESAT-1
1 51657U 22013B   26115.67953839  .00918934  47724-3  10792-2 0  9999
2 51657  97.4358 167.5870 0006794 216.2473 143.8350 16.08734459234344
GOES-18
1 51850U 22021A   26115.68255981  .00000083  00000-0  00000-0 0  9996
2 51850   0.0124  93.6914 0000386 357.8405 230.8777  1.00271801  6065
MERIDIAN-10
1 52145U 22030A   26115.13393905  .00000218  00000-0  00000-0 0  9993
2 52145  62.6744 146.4737 6770198 272.9069  17.7400  2.00616475 29969
BRO-6
1 52422U 22047AE  26115.93764407  .00035473  00000-0  69389-3 0  9995
2 52422  97.3391 206.1215 0003800 243.6695 116.4165 15.47342444223067
STEP CUBELAB-II
1 52897U 22065D   26115.96101340  .00000745  00000-0  15397-3 0  9999
2 52897  98.2147 260.0468 0008503 179.9459 180.1745 14.63213399203866
RANDEV
1 52898U 22065E   26115.97584043  .00000672  00000-0  13867-3 0  9995
2 52898  98.2135 260.3901 0007811 179.7141 180.4067 14.63597178203619
